$$SOE
2460728.500000000, A.D. 2025-Feb-22 00:00:00.0000, 2.513499862833284E+08, 2.100014809079274E+08, 1.533342896068574E+07,
2460735.500000000, A.D. 2025-Mar-01 00:00:00.0000, 2.451639107870058E+08, 2.205660640357299E+08, 1.525931243485668E+07,
2460742.500000000, A.D. 2025-Mar-08 00:00:00.0000, 2.386470185187174E+08, 2.308331789507245E+08, 1.516460338580066E+07,
2460749.500000000, A.D. 2025-Mar-15 00:00:00.0000, 2.318145451944297E+08, 2.407952086140471E+08, 1.504983839164186E+07,
2460756.500000000, A.D. 2025-Mar-22 00:00:00.0000, 2.246815835191502E+08, 2.504452811878431E+08, 1.491556223998441E+07,
2460763.500000000, A.D. 2025-Mar-29 00:00:00.0000, 2.172630571007662E+08, 2.597772286424057E+08, 1.476232596924920E+07,
2460770.500000000, A.D. 2025-Apr-05 00:00:00.0000, 2.095736998085460E+08, 2.687855471553608E+08, 1.459068501323578E+07,
2460777.500000000, A.D. 2025-Apr-12 00:00:00.0000, 2.016280383209521E+08, 2.774653595892223E+08, 1.440119762234350E+07,
2460784.500000000, A.D. 2025-Apr-19 00:00:00.0000, 1.934403773621949E+08, 2.858123793121898E+08, 1.419442349531323E+07,
2460791.500000000, A.D. 2025-Apr-26 00:00:00.0000, 1.850247876028174E+08, 2.938228752704231E+08, 1.397092256866589E+07,
2460798.500000000, A.D. 2025-May-03 00:00:00.0000, 1.763950960584798E+08, 3.014936384113771E+08, 1.373125394378175E+07,
2460805.500000000, A.D. 2025-May-10 00:00:00.0000, 1.675648787535016E+08, 3.088219495208642E+08, 1.347597493881308E+07,
2460812.500000000, A.D. 2025-May-17 00:00:00.0000, 1.585474554417052E+08, 3.158055484644951E+08, 1.320564024825160E+07,
2460819.500000000, A.D. 2025-May-24 00:00:00.0000, 1.493558863321564E+08, 3.224426047923576E+08, 1.292080117984383E+07,
2460826.500000000, A.D. 2025-May-31 00:00:00.0000, 1.400029710296809E+08, 3.287316900170398E+08, 1.262200494662078E+07,
2460833.500000000, A.D. 2025-Jun-07 00:00:00.0000, 1.305012491011626E+08, 3.346717527553231E+08, 1.230979414011832E+07,
2460840.500000000, A.D. 2025-Jun-14 00:00:00.0000, 1.208629997288563E+08, 3.402620960339273E+08, 1.198470653819942E+07,
2460847.500000000, A.D. 2025-Jun-21 00:00:00.0000, 1.111002415016489E+08, 3.455023534515651E+08, 1.164727486141457E+07,
2460854.500000000, A.D. 2025-Jun-28 00:00:00.0000, 1.012247353301327E+08, 3.503924659300600E+08, 1.129802632852872E+07,
2460861.500000000, A.D. 2025-Jul-05 00:00:00.0000, 9.124798884327531E+07, 3.549326611650122E+08, 1.093748231929559E+07,
2460868.500000000, A.D. 2025-Jul-12 00:00:00.0000, 8.118126095755488E+07, 3.591234349180203E+08, 1.056615818156333E+07,
2460875.500000000, A.D. 2025-Jul-19 00:00:00.0000, 7.103556670160857E+07, 3.629655335234067E+08, 1.018456311279085E+07,
2460882.500000000, A.D. 2025-Jul-26 00:00:00.0000, 6.082168241170800E+07, 3.664599375005348E+08, 9.793200087006748E+06,
2460889.500000000, A.D. 2025-Aug-02 00:00:00.0000, 5.055015127918464E+07, 3.696078462405944E+08, 9.392565818327531E+06,
2460896.500000000, A.D. 2025-Aug-09 00:00:00.0000, 4.023128919828504E+07, 3.724106637007919E+08, 8.983150753471613E+06,
2460903.500000000, A.D. 2025-Aug-16 00:00:00.0000, 2.987519092511331E+07, 3.748699849912059E+08, 8.565439077224433E+06,
2460910.500000000, A.D. 2025-Aug-23 00:00:00.0000, 1.949173678210187E+07, 3.769875838205849E+08, 8.139908701891750E+06,
2460917.500000000, A.D. 2025-Aug-30 00:00:00.0000, 9.090600186651956E+06, 3.787654014668080E+08, 7.707031265645623E+06,
2460924.500000000, A.D. 2025-Sep-06 00:00:00.0000, -1.318745455304139E+06, 3.802055382242091E+08, 7.267272348201394E+06,
2460931.500000000, A.D. 2025-Sep-13 00:00:00.0000, -1.172702219692275E+07, 3.813102447888232E+08, 6.821091851127982E+06,
2460938.500000000, A.D. 2025-Sep-20 00:00:00.0000, -2.212514210641984E+07, 3.820819118818490E+08, 6.368944106606781E+06,
2460945.500000000, A.D. 2025-Sep-27 00:00:00.0000, -3.250419990993129E+07, 3.825230611837987E+08, 5.911277870445341E+06,
2460952.500000000, A.D. 2025-Oct-04 00:00:00.0000, -4.285546576578395E+07, 3.826363380829592E+08, 5.448536426797926E+06,
2460959.500000000, A.D. 2025-Oct-11 00:00:00.0000, -5.317037856735682E+07, 3.824245052607090E+08, 4.981157760451376E+06,
2460966.500000000, A.D. 2025-Oct-18 00:00:00.0000, -6.344053950932127E+07, 3.818904368075732E+08, 4.509574746725649E+06,
2460973.500000000, A.D. 2025-Oct-25 00:00:00.0000, -7.365770579200977E+07, 3.810371128494669E+08, 4.034215345424712E+06,
2460980.500000000, A.D. 2025-Nov-01 00:00:00.0000, -8.381378443674162E+07, 3.798676146678694E+08, 3.555502794901252E+06,
2460987.500000000, A.D. 2025-Nov-08 00:00:00.0000, -9.390082618876526E+07, 3.783851202517854E+08, 3.073855799111873E+06,
2460994.500000000, A.D. 2025-Nov-15 00:00:00.0000, -1.039110193701958E+08, 3.765929001941222E+08, 2.589688688133895E+06,
2461001.500000000, A.D. 2025-Nov-22 00:00:00.0000, -1.138366832896765E+08, 3.744943141261559E+08, 2.103411532194674E+06,
2461008.500000000, A.D. 2025-Nov-29 00:00:00.0000, -1.236702613708938E+08, 3.720928088023217E+08, 1.615430315056592E+06,
2461015.500000000, A.D. 2025-Dec-06 00:00:00.0000, -1.334043162835474E+08, 3.693919176806076E+08, 1.126147363386989E+06,
2461022.500000000, A.D. 2025-Dec-13 00:00:00.0000, -1.430315266448727E+08, 3.663952586061184E+08, 6.359617161767334E+05,
2461029.500000000, A.D. 2025-Dec-20 00:00:00.0000, -1.525446818046550E+08, 3.631065305979550E+08, 1.452691973866224E+05,
2461036.500000000, A.D. 2025-Dec-27 00:00:00.0000, -1.619366757948274E+08, 3.595295123182430E+08, -3.455374986118674E+05,
2461043.500000000, A.D. 2026-Jan-03 00:00:00.0000, -1.712005019042215E+08, 3.556680615960624E+08, -8.360686260657310E+05,
2461050.500000000, A.D. 2026-Jan-10 00:00:00.0000, -1.803292477691861E+08, 3.515261153128979E+08, -1.325937177217230E+06,
2461057.500000000, A.D. 2026-Jan-17 00:00:00.0000, -1.893160907487786E+08, 3.471076895443347E+08, -1.814758671041742E+06,
2461064.500000000, A.D. 2026-Jan-24 00:00:00.0000, -1.981542935082350E+08, 3.424168799680865E+08, -2.302150946809217E+06,
2461071.500000000, A.D. 2026-Jan-31 00:00:00.0000, -2.068371997897642E+08, 3.374578625193329E+08, -2.787733965348527E+06,
2461078.500000000, A.D. 2026-Feb-07 00:00:00.0000, -2.153582303129491E+08, 3.322348942259063E+08, -3.271129628416717E+06,
2461085.500000000, A.D. 2026-Feb-14 00:00:00.0000, -2.237108785566775E+08, 3.267523142000167E+08, -3.751961640692383E+06,
2461092.500000000, A.D. 2026-Feb-21 00:00:00.0000, -2.318887060409080E+08, 3.210145453577865E+08, -4.229855402866557E+06,
2461099.500000000, A.D. 2026-Feb-28 00:00:00.0000, -2.398853382000802E+08, 3.150260980172742E+08, -4.704437742376998E+06,
2461106.500000000, A.D. 2026-Mar-07 00:00:00.0000, -2.476944629123568E+08, 3.087915734255199E+08, -5.175336452976912E+06,
2461113.500000000, A.D. 2026-Mar-14 00:00:00.0000, -2.553098289096171E+08, 3.023156648787291E+08, -5.642180088421166E+06,
2461120.500000000, A.D. 2026-Mar-21 00:00:00.0000, -2.627252422898065E+08, 2.956031593262695E+08, -6.104597936610445E+06,
2461127.500000000, A.D. 2026-Mar-28 00:00:00.0000, -2.699345631508155E+08, 2.886589404862366E+08, -6.562219906374589E+06,
2461134.500000000, A.D. 2026-Apr-04 00:00:00.0000, -2.769317029567448E+08, 2.814879925079075E+08, -7.014676351005942E+06,
2461141.500000000, A.D. 2026-Apr-11 00:00:00.0000, -2.837106223694934E+08, 2.740954038197960E+08, -7.461597883250475E+06,
2461148.500000000, A.D. 2026-Apr-18 00:00:00.0000, -2.902653293953441E+08, 2.664863711553566E+08, -7.902615197085574E+06,
2461155.500000000, A.D. 2026-Apr-25 00:00:00.0000, -2.965898778114182E+08, 2.586662037709866E+08, -8.337358899601996E+06,
2461162.500000000, A.D. 2026-May-02 00:00:00.0000, -3.026783658532675E+08, 2.506403278278904E+08, -8.765459358693227E+06,
2461169.500000000, A.D. 2026-May-09 00:00:00.0000, -3.085249350517224E+08, 2.424142908738455E+08, -9.186546583984643E+06,
2461176.500000000, A.D. 2026-May-16 00:00:00.0000, -3.141237688537460E+08, 2.339937665659879E+08, -9.600250164983347E+06,
2461183.500000000, A.D. 2026-May-23 00:00:00.0000, -3.194690909879723E+08, 2.253845606590003E+08, -1.000619918816131E+07,
2461190.500000000, A.D. 2026-May-30 00:00:00.0000, -3.245551656677970E+08, 2.165926185790373E+08, -1.040402191674604E+07,
2461197.500000000, A.D. 2026-Jun-06 00:00:00.0000, -3.293762999661166E+08, 2.076240313107618E+08, -1.079334547226088E+07,
2461204.500000000, A.D. 2026-Jun-13 00:00:00.0000, -3.339268447120413E+08, 1.984850397943292E+08, -1.117379583784741E+07,
2461211.500000000, A.D. 2026-Jun-20 00:00:00.0000, -3.382011944342026E+08, 1.891820407533563E+08, -1.154499789879481E+07,
2461218.500000000, A.D. 2026-Jun-27 00:00:00.0000, -3.421937880819191E+08, 1.797215936157277E+08, -1.190657539451225E+07,
2461225.500000000, A.D. 2026-Jul-04 00:00:00.0000, -3.458991105557545E+08, 1.701104277587229E+08, -1.225815084776072E+07,
2461232.500000000, A.D. 2026-Jul-11 00:00:00.0000, -3.493116948221525E+08, 1.603554499504119E+08, -1.259934550714105E+07,
2461239.500000000, A.D. 2026-Jul-18 00:00:00.0000, -3.524261245489970E+08, 1.504637520133232E+08, -1.292977931090108E+07,
2461246.500000000, A.D. 2026-Jul-25 00:00:00.0000, -3.552370372699947E+08, 1.404426187108144E+08, -1.324907087573560E+07,
2461253.500000000, A.D. 2026-Aug-01 00:00:00.0000, -3.577391280653878E+08, 1.302995358038087E+08, -1.355683752067832E+07,
2461260.500000000, A.D. 2026-Aug-08 00:00:00.0000, -3.599271535829545E+08, 1.200421982360358E+08, -1.385269535060381E+07,
2461267.500000000, A.D. 2026-Aug-15 00:00:00.0000, -3.617959360261165E+08, 1.096785188900989E+08, -1.413625940258700E+07,
2461274.500000000, A.D. 2026-Aug-22 00:00:00.0000, -3.633403679155424E+08, 9.921663912465520E+07, -1.440714368769092E+07,
2461281.500000000, A.D. 2026-Aug-29 00:00:00.0000, -3.645554199646644E+08, 8.866493970631966E+07, -1.466496103319645E+07,
2461288.500000000, A.D. 2026-Sep-05 00:00:00.0000, -3.654361499914984E+08, 7.803204925425382E+07, -1.490932315855192E+07,
2461295.500000000, A.D. 2026-Sep-12 00:00:00.0000, -3.659777104650687E+08, 6.732685267579940E+07, -1.513984100862274E+07,
$$EOE